{"type": "FeatureCollection", "features": [{"type": "Feature", "geometry": {"type": "GeometryCollection", "geometries": [{"type": "LineString", "coordinates": [[-105.0416963301442, 40.01492953577937], [-105.0416520268651, 40.01492941099881], [-105.0416362318848, 40.01492938365205], [-105.0415641375062, 40.01492919936571], [-105.0414920543563, 40.01492910388373], [-105.0414200888683, 40.01492899988211], [-105.0413479944906, 40.01492881547198], [-105.0412759113414, 40.01492871986616], [-105.0412039346262, 40.01492852689529], [-105.0411318514774, 40.01492843120699], [-105.0410597571011, 40.01492824663172], [-105.0409877803869, 40.01492805353723], [-105.0409156635562, 40.01492769118811], [-105.0408436756156, 40.01492740916551], [-105.0407715587862, 40.0149270467338], [-105.0406995596195, 40.01492667578309], [-105.0406274427916, 40.01492631326883], [-105.0405554436263, 40.01492594223568], [-105.0404833380269, 40.01492566848449], [-105.0404113388631, 40.01492529736891], [-105.040339222038, 40.01492493468948], [-105.0402672228756, 40.01492456349141], [-105.040195223714, 40.01492419225224], [-105.0401231181177, 40.01492391829471], [-105.0400789212802, 40.01492369563756]]}]}, "properties": {"name": "820290 , 24\" Yosemite to Foothills - CAM", "FID": 0, "EXCEL_ROW_": 91932, "SWID": 1426226270, "WORLD_ID": 0, "STATUS": "Existing", "STATE": "Colorado", "ID": 1426226270, "STATUS1": "Existing", "TYPE": "Regular", "MODEL_FIGU": null, "START_STAT": 16610.29203, "END_STATIO": 17059.25028, "GIRTH_WELD": null, "INTERNALLY": "No", "DATE_MANUF": null, "BEND_TRANS": null, "DATE_INSTA": "11/1/1995", "MANUFACTUR": null, "MILL_LOCAT": null, "CONTRACTOR": null, "PRE_TEST_N": null, "TOUGHNESS": 0, "MATERIAL": "Steel", "SPECIFICAT": "Unknown", "OUTSIDE_DI": 24, "WALL_THICK": 0.375, "PIPE_GRADE": "Unknown", "LONGITUDIN": "Unknown", "NOMINAL_DI": 24, "YIELD_STRE": 0, "MAOP": 938, "MOP": 0, "TEST_PRESS": 1706, "TEST_MEDIU": null, "TEST_DURAT": 0, "TEST_DATE": "9/1/1995", "REGION": null, "DISTRICT": null, "SYSTEM_TYP": null, "SMYS": 60000, "AVERAGE_DE": 0, "LINE_LOOP_": 52854822, "STORAGE_ID": 0, "STATION_ID": 0, "REVERSE_FL": 0, "SOURCE_ID": 0, "SOURCE_DAT": null, "REVERSE_ST": 0, "PERCENT_OF": 50, "ACTUAL_LEN": 448.95915, "ASSET_ID": null, "SEGMENT_NU": 0, "INSTALL_ME": "Unknown", "SEAM_TYPE": "Unknown", "MAOP_UPRAT": null, "DESIGN_PRE": 938, "BEND_RADIU": 0, "BEND_TECHN": null, "START_LINE": 8.15324, "END_LINEPO": 8.65608, "ERP_ID": null, "PREVIOUS_L": "Unknown", "DESIGN_FAC": 0.5, "COATING_TY": "Fusion Bonded Epoxy (FBE)", "ACCOUNT_NU": "J0100082", "OPERATING_": 0, "MAOP_VERIF": null, "MAOP_ESTAB": null, "MAOP_EST1": null, "STAGNANT_G": null, "VINTAGE_WE": null, "OXY_ACETYL": null, "X_RAY_INSP": null, "SEAM_POSIT": "Unknown", "HEAT_NUMBE": "See Job Book(s)", "HOP_5_YEAR": 0, "MAX_TEMPER": 0, "UPRATED": 0, "MAOP_LIMIT": 0, "MAOP_LIM1": null, "MEETS_192_": 0, "EXPANDED_R": 0, "ORIGINAL_C": null, "DATE_RETIR": null, "XCEL_GT_PI": 0, "ODORANT_AR": "B-(L)-9 & B-(L)-91", "REMARKS": "MAOP Validation Material Build (11/21/2019):\n\nFollowing Job Book(s) Include Project Level Information for this Feature, including Heat Numbers:\n\n82029-JOB-J0100082-11946.pdf:\n\n\n\nNEW CLASS LOCATION (2007) UNDER WCR 15 **PER DOT 619(a1)(AH 06/27/07)\n\n\n\nFilename:", "LINELOOP_I": 52854822, "LINELOOP_N": 820290, "LINELOOP_F": "24\" Yosemite to Foothills - CAM", "LINELOOP_T": "Transmission", "OPERATINGA": 15931, "LineLoop": "820290 , 24\" Yosemite to Foothills - CAM"}}]}