{
"type": "FeatureCollection",
"name": "exampleOutput",
"crs": { "type": "name", "properties": { "name": "urn:ogc:def:crs:OGC:1.3:CRS84" } },
"features": [
{ "type": "Feature", "properties": { "Name": "820290 , 24\" Yosemite to Foothills - CAM", "description": "<html xmlns:fo=\"http://www.w3.org/1999/XSL/Format\" xmlns:msxsl=\"urn:schemas-microsoft-com:xslt\">\n\n<head>\n\n<META http-equiv=\"Content-Type\" content=\"text/html\">\n\n<meta http-equiv=\"content-type\" content=\"text/html; charset=UTF-8\">\n\n</head>\n\n<body style=\"margin:0px 0px 0px 0px;overflow:auto;background:#FFFFFF;\">\n\n<table style=\"font-family:Arial,Verdana,Times;font-size:12px;text-align:left;width:100%;border-collapse:collapse;padding:3px 3px 3px 3px\">\n\n<tr style=\"text-align:center;font-weight:bold;background:#9CBCE2\">\n\n<td>820290 , 24\" Yosemite to Foothills - CAM</td>\n\n</tr>\n\n<tr>\n\n<td>\n\n<table style=\"font-family:Arial,Verdana,Times;font-size:12px;text-align:left;width:100%;border-spacing:0px; padding:3px 3px 3px 3px\">\n\n<tr>\n\n<td>FID</td>\n\n<td>0</td>\n\n</tr>\n\n<tr bgcolor=\"#D4E4F3\">\n\n<td>EXCEL_ROW_</td>\n\n<td>91932</td>\n\n</tr>\n\n<tr>\n\n<td>SWID</td>\n\n<td>1426226270</td>\n\n</tr>\n\n<tr bgcolor=\"#D4E4F3\">\n\n<td>WORLD_ID</td>\n\n<td>0</td>\n\n</tr>\n\n<tr>\n\n<td>STATUS</td>\n\n<td>Existing</td>\n\n</tr>\n\n<tr bgcolor=\"#D4E4F3\">\n\n<td>STATE</td>\n\n<td>Colorado</td>\n\n</tr>\n\n<tr>\n\n<td>ID</td>\n\n<td>1426226270</td>\n\n</tr>\n\n<tr bgcolor=\"#D4E4F3\">\n\n<td>STATUS1</td>\n\n<td>Existing</td>\n\n</tr>\n\n<tr>\n\n<td>TYPE</td>\n\n<td>Regular</td>\n\n</tr>\n\n<tr bgcolor=\"#D4E4F3\">\n\n<td>MODEL_FIGU</td>\n\n<td></td>\n\n</tr>\n\n<tr>\n\n<td>START_STAT</td>\n\n<td>16610.29203</td>\n\n</tr>\n\n<tr bgcolor=\"#D4E4F3\">\n\n<td>END_STATIO</td>\n\n<td>17059.25028</td>\n\n</tr>\n\n<tr>\n\n<td>GIRTH_WELD</td>\n\n<td></td>\n\n</tr>\n\n<tr bgcolor=\"#D4E4F3\">\n\n<td>INTERNALLY</td>\n\n<td>No</td>\n\n</tr>\n\n<tr>\n\n<td>DATE_MANUF</td>\n\n<td>&lt;Null&gt;</td>\n\n</tr>\n\n<tr bgcolor=\"#D4E4F3\">\n\n<td>BEND_TRANS</td>\n\n<td></td>\n\n</tr>\n\n<tr>\n\n<td>DATE_INSTA</td>\n\n<td>11/1/1995</td>\n\n</tr>\n\n<tr bgcolor=\"#D4E4F3\">\n\n<td>MANUFACTUR</td>\n\n<td></td>\n\n</tr>\n\n<tr>\n\n<td>MILL_LOCAT</td>\n\n<td></td>\n\n</tr>\n\n<tr bgcolor=\"#D4E4F3\">\n\n<td>CONTRACTOR</td>\n\n<td></td>\n\n</tr>\n\n<tr>\n\n<td>PRE_TEST_N</td>\n\n<td></td>\n\n</tr>\n\n<tr bgcolor=\"#D4E4F3\">\n\n<td>TOUGHNESS</td>\n\n<td>0</td>\n\n</tr>\n\n<tr>\n\n<td>MATERIAL</td>\n\n<td>Steel</td>\n\n</tr>\n\n<tr bgcolor=\"#D4E4F3\">\n\n<td>SPECIFICAT</td>\n\n<td>Unknown</td>\n\n</tr>\n\n<tr>\n\n<td>OUTSIDE_DI</td>\n\n<td>24</td>\n\n</tr>\n\n<tr bgcolor=\"#D4E4F3\">\n\n<td>WALL_THICK</td>\n\n<td>.375</td>\n\n</tr>\n\n<tr>\n\n<td>PIPE_GRADE</td>\n\n<td>Unknown</td>\n\n</tr>\n\n<tr bgcolor=\"#D4E4F3\">\n\n<td>LONGITUDIN</td>\n\n<td>Unknown</td>\n\n</tr>\n\n<tr>\n\n<td>NOMINAL_DI</td>\n\n<td>24</td>\n\n</tr>\n\n<tr bgcolor=\"#D4E4F3\">\n\n<td>YIELD_STRE</td>\n\n<td>0</td>\n\n</tr>\n\n<tr>\n\n<td>MAOP</td>\n\n<td>938</td>\n\n</tr>\n\n<tr bgcolor=\"#D4E4F3\">\n\n<td>MOP</td>\n\n<td>0</td>\n\n</tr>\n\n<tr>\n\n<td>TEST_PRESS</td>\n\n<td>1706</td>\n\n</tr>\n\n<tr bgcolor=\"#D4E4F3\">\n\n<td>TEST_MEDIU</td>\n\n<td></td>\n\n</tr>\n\n<tr>\n\n<td>TEST_DURAT</td>\n\n<td>0</td>\n\n</tr>\n\n<tr bgcolor=\"#D4E4F3\">\n\n<td>TEST_DATE</td>\n\n<td>9/1/1995</td>\n\n</tr>\n\n<tr>\n\n<td>REGION</td>\n\n<td></td>\n\n</tr>\n\n<tr bgcolor=\"#D4E4F3\">\n\n<td>DISTRICT</td>\n\n<td></td>\n\n</tr>\n\n<tr>\n\n<td>SYSTEM_TYP</td>\n\n<td></td>\n\n</tr>\n\n<tr bgcolor=\"#D4E4F3\">\n\n<td>SMYS</td>\n\n<td>60000</td>\n\n</tr>\n\n<tr>\n\n<td>AVERAGE_DE</td>\n\n<td>0</td>\n\n</tr>\n\n<tr bgcolor=\"#D4E4F3\">\n\n<td>LINE_LOOP_</td>\n\n<td>52854822</td>\n\n</tr>\n\n<tr>\n\n<td>STORAGE_ID</td>\n\n<td>0</td>\n\n</tr>\n\n<tr bgcolor=\"#D4E4F3\">\n\n<td>STATION_ID</td>\n\n<td>0</td>\n\n</tr>\n\n<tr>\n\n<td>REVERSE_FL</td>\n\n<td>0</td>\n\n</tr>\n\n<tr bgcolor=\"#D4E4F3\">\n\n<td>SOURCE_ID</td>\n\n<td>0</td>\n\n</tr>\n\n<tr>\n\n<td>SOURCE_DAT</td>\n\n<td></td>\n\n</tr>\n\n<tr bgcolor=\"#D4E4F3\">\n\n<td>REVERSE_ST</td>\n\n<td>0</td>\n\n</tr>\n\n<tr>\n\n<td>PERCENT_OF</td>\n\n<td>50</td>\n\n</tr>\n\n<tr bgcolor=\"#D4E4F3\">\n\n<td>ACTUAL_LEN</td>\n\n<td>448.95915</td>\n\n</tr>\n\n<tr>\n\n<td>ASSET_ID</td>\n\n<td></td>\n\n</tr>\n\n<tr bgcolor=\"#D4E4F3\">\n\n<td>SEGMENT_NU</td>\n\n<td>0</td>\n\n</tr>\n\n<tr>\n\n<td>INSTALL_ME</td>\n\n<td>Unknown</td>\n\n</tr>\n\n<tr bgcolor=\"#D4E4F3\">\n\n<td>SEAM_TYPE</td>\n\n<td>Unknown</td>\n\n</tr>\n\n<tr>\n\n<td>MAOP_UPRAT</td>\n\n<td>&lt;Null&gt;</td>\n\n</tr>\n\n<tr bgcolor=\"#D4E4F3\">\n\n<td>DESIGN_PRE</td>\n\n<td>938</td>\n\n</tr>\n\n<tr>\n\n<td>BEND_RADIU</td>\n\n<td>0</td>\n\n</tr>\n\n<tr bgcolor=\"#D4E4F3\">\n\n<td>BEND_TECHN</td>\n\n<td></td>\n\n</tr>\n\n<tr>\n\n<td>START_LINE</td>\n\n<td>8.15324</td>\n\n</tr>\n\n<tr bgcolor=\"#D4E4F3\">\n\n<td>END_LINEPO</td>\n\n<td>8.65608</td>\n\n</tr>\n\n<tr>\n\n<td>ERP_ID</td>\n\n<td></td>\n\n</tr>\n\n<tr bgcolor=\"#D4E4F3\">\n\n<td>PREVIOUS_L</td>\n\n<td>Unknown</td>\n\n</tr>\n\n<tr>\n\n<td>DESIGN_FAC</td>\n\n<td>0.50</td>\n\n</tr>\n\n<tr bgcolor=\"#D4E4F3\">\n\n<td>COATING_TY</td>\n\n<td>Fusion Bonded Epoxy (FBE)</td>\n\n</tr>\n\n<tr>\n\n<td>ACCOUNT_NU</td>\n\n<td>J0100082</td>\n\n</tr>\n\n<tr bgcolor=\"#D4E4F3\">\n\n<td>OPERATING_</td>\n\n<td>0</td>\n\n</tr>\n\n<tr>\n\n<td>MAOP_VERIF</td>\n\n<td>&lt;Null&gt;</td>\n\n</tr>\n\n<tr bgcolor=\"#D4E4F3\">\n\n<td>MAOP_ESTAB</td>\n\n<td>&lt;Null&gt;</td>\n\n</tr>\n\n<tr>\n\n<td>MAOP_EST1</td>\n\n<td></td>\n\n</tr>\n\n<tr bgcolor=\"#D4E4F3\">\n\n<td>STAGNANT_G</td>\n\n<td></td>\n\n</tr>\n\n<tr>\n\n<td>VINTAGE_WE</td>\n\n<td></td>\n\n</tr>\n\n<tr bgcolor=\"#D4E4F3\">\n\n<td>OXY_ACETYL</td>\n\n<td></td>\n\n</tr>\n\n<tr>\n\n<td>X_RAY_INSP</td>\n\n<td></td>\n\n</tr>\n\n<tr bgcolor=\"#D4E4F3\">\n\n<td>SEAM_POSIT</td>\n\n<td>Unknown</td>\n\n</tr>\n\n<tr>\n\n<td>HEAT_NUMBE</td>\n\n<td>See Job Book(s)</td>\n\n</tr>\n\n<tr bgcolor=\"#D4E4F3\">\n\n<td>HOP_5_YEAR</td>\n\n<td>0</td>\n\n</tr>\n\n<tr>\n\n<td>MAX_TEMPER</td>\n\n<td>0</td>\n\n</tr>\n\n<tr bgcolor=\"#D4E4F3\">\n\n<td>UPRATED</td>\n\n<td>0</td>\n\n</tr>\n\n<tr>\n\n<td>MAOP_LIMIT</td>\n\n<td>0</td>\n\n</tr>\n\n<tr bgcolor=\"#D4E4F3\">\n\n<td>MAOP_LIM1</td>\n\n<td>&lt;Null&gt;</td>\n\n</tr>\n\n<tr>\n\n<td>MEETS_192_</td>\n\n<td>0</td>\n\n</tr>\n\n<tr bgcolor=\"#D4E4F3\">\n\n<td>EXPANDED_R</td>\n\n<td>0</td>\n\n</tr>\n\n<tr>\n\n<td>ORIGINAL_C</td>\n\n<td></td>\n\n</tr>\n\n<tr bgcolor=\"#D4E4F3\">\n\n<td>DATE_RETIR</td>\n\n<td>&lt;Null&gt;</td>\n\n</tr>\n\n<tr>\n\n<td>XCEL_GT_PI</td>\n\n<td>0</td>\n\n</tr>\n\n<tr bgcolor=\"#D4E4F3\">\n\n<td>ODORANT_AR</td>\n\n<td>B-(L)-9 &amp; B-(L)-91</td>\n\n</tr>\n\n<tr>\n\n<td>REMARKS</td>\n\n<td>MAOP Validation Material Build (11/21/2019):\n\nFollowing Job Book(s) Include Project Level Information for this Feature, including Heat Numbers:\n\n82029-JOB-J0100082-11946.pdf:\n\n\n\nNEW CLASS LOCATION (2007) UNDER WCR 15 **PER DOT 619(a1)(AH 06/27/07)\n\n\n\nFilename:</td>\n\n</tr>\n\n<tr bgcolor=\"#D4E4F3\">\n\n<td>LINELOOP_I</td>\n\n<td>52854822</td>\n\n</tr>\n\n<tr>\n\n<td>LINELOOP_N</td>\n\n<td>820290</td>\n\n</tr>\n\n<tr bgcolor=\"#D4E4F3\">\n\n<td>LINELOOP_F</td>\n\n<td>24\" Yosemite to Foothills - CAM</td>\n\n</tr>\n\n<tr>\n\n<td>LINELOOP_T</td>\n\n<td>Transmission</td>\n\n</tr>\n\n<tr bgcolor=\"#D4E4F3\">\n\n<td>OPERATINGA</td>\n\n<td>15931</td>\n\n</tr>\n\n<tr>\n\n<td>LineLoop</td>\n\n<td>820290 , 24\" Yosemite to Foothills - CAM</td>\n\n</tr>\n\n</table>\n\n</td>\n\n</tr>\n\n</table>\n\n</body>\n\n</html>", "timestamp": null, "begin": null, "end": null, "altitudeMode": null, "tessellate": 1, "extrude": 0, "visibility": -1, "drawOrder": null, "icon": null, "snippet": "" }, "geometry": { "type": "MultiLineString", "coordinates": [ [ [ -105.041696330144205, 40.014929535779373, 0.0 ], [ -105.041652026865094, 40.014929410998811, 0.0 ], [ -105.041636231884794, 40.014929383652053, 0.0 ], [ -105.041564137506199, 40.01492919936571, 0.0 ], [ -105.041492054356297, 40.01492910388373, 0.0 ], [ -105.041420088868307, 40.014928999882109, 0.0 ], [ -105.041347994490593, 40.014928815471983, 0.0 ], [ -105.041275911341401, 40.014928719866163, 0.0 ], [ -105.041203934626196, 40.014928526895289, 0.0 ], [ -105.041131851477402, 40.01492843120699, 0.0 ], [ -105.041059757101095, 40.014928246631719, 0.0 ], [ -105.040987780386899, 40.014928053537233, 0.0 ], [ -105.040915663556206, 40.014927691188113, 0.0 ], [ -105.040843675615605, 40.014927409165509, 0.0 ], [ -105.040771558786204, 40.014927046733803, 0.0 ], [ -105.040699559619497, 40.014926675783087, 0.0 ], [ -105.040627442791603, 40.01492631326883, 0.0 ], [ -105.040555443626303, 40.014925942235678, 0.0 ], [ -105.040483338026903, 40.014925668484487, 0.0 ], [ -105.040411338863095, 40.014925297368912, 0.0 ], [ -105.040339222038, 40.014924934689482, 0.0 ], [ -105.040267222875599, 40.014924563491412, 0.0 ], [ -105.040195223713994, 40.014924192252238, 0.0 ], [ -105.040123118117705, 40.014923918294713, 0.0 ], [ -105.040078921280198, 40.014923695637563, 0.0 ] ] ] } }
]
}
